[{"OBJECT_NAME":"STARLINK-30964","OBJECT_ID":"2023-180A","EPOCH":"2026-03-09T22:00:01.999584","MEAN_MOTION":15.27534414,"ECCENTRICITY":0.00013254,"INCLINATION":43.0022,"RA_OF_ASC_NODE":51.2339,"ARG_OF_PERICENTER":303.6347,"MEAN_ANOMALY":322.2227,"EPHEMERIS_TYPE":0,"CLASSIFICATION_TYPE":"U","NORAD_CAT_ID":58402,"ELEMENT_SET_NO":999,"REV_AT_EPOCH":577,"BSTAR":0.0018406986,"MEAN_MOTION_DOT":0.00050668,"MEAN_MOTION_DDOT":0},{"OBJECT_NAME":"OBJECT A","OBJECT_ID":"2025-013A","EPOCH":"2026-03-09T23:29:31.895232","MEAN_MOTION":15.29260221,"ECCENTRICITY":0.0010321,"INCLINATION":97.6364,"RA_OF_ASC_NODE":244.5149,"ARG_OF_PERICENTER":282.3775,"MEAN_ANOMALY":77.6309,"EPHEMERIS_TYPE":0,"CLASSIFICATION_TYPE":"U","NORAD_CAT_ID":62729,"ELEMENT_SET_NO":999,"REV_AT_EPOCH":6276,"BSTAR":0.0013206527,"MEAN_MOTION_DOT":0.00037616,"MEAN_MOTION_DDOT":0}]
